GALAXY 25 (G-25)        
1 24812U 97026A   22232.51966387 -.00000012  00000+0  00000+0 0  9999
2 24812   3.8455  83.0251 0002974  37.6156 101.3717  1.00273896 92370
INTELSAT 5 (IS-5)       
1 24916U 97046A   22232.60405821 -.00000070  00000+0  00000+0 0  9991
2 24916   7.3606  60.6078 0003664 117.8024 174.1182  1.00270009 91615
GALAXY 11 (G-11)        
1 26038U 99071A   22232.48792293 -.00000169  00000+0  00000+0 0  9995
2 26038   3.1633  86.9375 0000621 191.9723 132.4390  1.00273186 83074
INTELSAT 9 (IS-9)       
1 26451U 00043A   22232.40743584 -.00000295  00000+0  00000+0 0  9996
2 26451   7.3464  60.7906 0002345 107.0410 257.5673  1.00271400 30147
INTELSAT 1R (IS-1R)     
1 26608U 00072A   22232.59348934 -.00000146  00000+0  00000+0 0  9997
2 26608   4.6208  80.0542 0000605 304.3771 315.2148  1.00271625 27310
INTELSAT 10 (IS-10)     
1 26766U 01019A   22232.53947168  .00000027  00000+0  00000+0 0  9999
2 26766   5.7261  72.8267 0002291  70.0987 197.9310  1.00273913 31614
INTELSAT 901 (IS-901)   
1 26824U 01024A   22230.92245490 -.00000209  00000+0  00000+0 0  9993
2 26824   0.0469 274.9291 0001023 262.1960  94.6849  1.00272347  8957
INTELSAT 902 (IS-902)   
1 26900U 01039A   22232.43799380 -.00000289  00000+0  00000+0 0  9992
2 26900   2.5616  88.3252 0002590  61.8444 286.1658  1.00270867 76684
INTELSAT 904 (IS-904)   
1 27380U 02007A   22232.40188444 -.00000221  00000+0  00000+0 0  9997
2 27380   3.3936  85.2805 0002885  75.8313 282.7701  1.00271841 37757
DIRECTV 5 (TEMPO 1)     
1 27426U 02023A   22232.54656778 -.00000061  00000+0  00000+0 0  9993
2 27426   1.2869  92.5023 0003133  61.6560 261.3306  1.00272343 74110
INTELSAT 905 (IS-905)   
1 27438U 02027A   22232.44563324 -.00000191  00000+0  00000+0 0  9997
2 27438   3.2154  86.0176 0002593  70.1066 308.5651  1.00272239 37361
GALAXY 3C (G-3C)        
1 27445U 02030A   22232.48748694 -.00000157  00000+0  00000+0 0  9990
2 27445   0.1339  83.6629 0000478 220.5672 105.2036  1.00272211 32487
INTELSAT 906 (IS-906)   
1 27513U 02041A   22232.51922788  .00000008  00000+0  00000+0 0  9994
2 27513   2.2305  89.7919 0003086  56.0613  74.0336  1.00271422 73027
GALAXY 12 (G-12)        
1 27715U 03013B   22232.52287009  .00000051  00000+0  00000+0 0  9997
2 27715   3.4268  84.9157 0001860  84.2094 218.9287  1.00272451 38081
GALAXY 23 (G-23)        
1 27854U 03034A   22232.53325586  .00000008  00000+0  00000+0 0  9990
2 27854   0.0641 269.1684 0002999 247.7476 242.9125  1.00272620 69731
GALAXY 13 (HORIZONS-1)  
1 27954U 03044A   22232.53219889  .00000043  00000+0  00000+0 0  9999
2 27954   0.0233 100.8448 0000954 258.6784  33.9044  1.00273094 32565
INTELSAT 10-02          
1 28358U 04022A   22230.93660551 -.00000018  00000+0  00000+0 0  9996
2 28358   0.0451 275.5298 0000674 270.4862 117.4340  1.00271486 66520
XM-3 (RHYTHM)           
1 28626U 05008A   22231.91552094 -.00000210  00000+0  00000+0 0  9994
2 28626   0.0151 198.9353 0001541 337.8880  35.8817  1.00270815 28612
DIRECTV 8               
1 28659U 05019A   22232.53660760 -.00000003  00000+0  00000+0 0  9991
2 28659   0.0166 128.0093 0002635  32.2244 242.7316  1.00271865 63061
GALAXY 28 (G-28)        
1 28702U 05022A   22232.34521627 -.00000189  00000+0  00000+0 0  9996
2 28702   0.0149  40.3609 0003142  98.6367 224.9171  1.00269088 37972
GALAXY 14 (G-14)        
1 28790U 05030A   22232.56160552  .00000150  00000+0  00000+0 0  9999
2 28790   1.4204  91.6026 0001706  65.1666  47.1632  1.00274455 62309
GALAXY 15 (G-15)        
1 28884U 05041A   22232.51814653  .00000074  00000+0  00000+0 0  9993
2 28884   0.0220 274.4872 0001754 241.5499 226.3723  1.00275223 61601
SPACEWAY 2              
1 28903U 05046B   22232.61184762  .00000098  00000+0  00000+0 0  9998
2 28903   2.0488  87.2853 0000239 187.8586 135.1305  1.00271962 37338
GALAXY 16 (G-16)        
1 29236U 06023A   22232.56009378 -.00000131  00000+0  00000+0 0  9996
2 29236   0.0534 275.9585 0002896 247.6444 267.8841  1.00272921 58961
DIRECTV 9S              
1 29494U 06043A   22232.55831466 -.00000118  00000+0  00000+0 0  9999
2 29494   0.0113 178.5917 0002759 338.2448 271.8167  1.00273112 37377
XM-4 (BLUES)            
1 29520U 06049A   22232.48949255 -.00000210  00000+0  00000+0 0  9996
2 29520   0.0662 294.9816 0001500  21.3375 103.5701  1.00274154 37461
GALAXY 17 (G-17)        
1 31307U 07016B   22232.48827174 -.00000179  00000+0  00000+0 0  9996
2 31307   0.0111 102.7391 0002568  59.3517 251.4729  1.00273089 56071
DIRECTV 10              
1 31862U 07032A   22232.55495628 -.00000107  00000+0  00000+0 0  9994
2 31862   0.0092 294.3660 0000236  94.8459  36.6277  1.00269562 31582
SPACEWAY 3              
1 32018U 07036A   22231.84174942 -.00000157  00000+0  00000+0 0  9991
2 32018   0.3834  90.1365 0000201 100.5714 345.5170  1.00271780 32544
INTELSAT 11 (IS-11)     
1 32253U 07044B   22232.45396464 -.00000273  00000+0  00000+0 0  9993
2 32253   0.0111 110.8985 0001665  53.9704 284.3274  1.00272246 54483
HORIZONS-2              
1 32388U 07063B   22232.36178435 -.00000145  00000+0  00000+0 0  9997
2 32388   0.0148  90.3565 0003574  12.6208 350.1689  0.99714096 53819
DIRECTV 11              
1 32729U 08013A   22232.56009345 -.00000130  00000+0  00000+0 0  9991
2 32729   0.0057  27.1419 0000251 184.8628 219.2929  1.00273118 31580
GALAXY 18 (G-18)        
1 32951U 08024A   22231.97943882  .00000020  00000+0  00000+0 0  9994
2 32951   0.0140 106.3494 0002945  52.1917  39.3540  1.00274264 31845
INTELSAT 25 (IS-25)     
1 33153U 08034A   22230.96993715 -.00000230  00000+0  00000+0 0  9992
2 33153   0.0154 131.6522 0003193  28.6985 124.6122  1.00271355 51672
GALAXY 19 (G-19)        
1 33376U 08045A   22231.20513986 -.00000145  00000+0  00000+0 0  9992
2 33376   0.0550 279.7018 0002884 234.3539 150.3182  1.00271755 50888
FM-5                    
1 35493U 09034A   22230.41646618 -.00000207  00000+0  00000+0 0  9993
2 35493   0.0237 100.2257 0000409 202.4820  87.8150  1.00268249 47952
INTELSAT 14 (IS-14)     
1 36097U 09064A   22232.45396464 -.00000278  00000+0  00000+0 0  9992
2 36097   0.0062 150.9734 0002412  13.4020 282.8040  1.00269682 46595
INTELSAT 15 (IS-15)     
1 36106U 09067A   22232.52341348 -.00000190  00000+0  00000+0 0  9998
2 36106   0.0138  77.1657 0002194  76.0589  89.1831  1.00271853 27224
DIRECTV 12              
1 36131U 09075A   22230.90752882 -.00000110  00000+0  00000+0 0  9996
2 36131   0.0379 282.6931 0000274 304.6650 323.8672  1.00272117 32549
INTELSAT 16 (IS-16)     
1 36397U 10006A   22230.94345425 -.00000251  00000+0  00000+0 0  9997
2 36397   0.0154  90.4625 0002166  66.2238  74.0147  1.00271467 45637
XM-5                    
1 37185U 10053A   22231.19456024 -.00000029  00000+0  00000+0 0  9994
2 37185   0.0189 109.4794 0000606 246.2729 286.6037  1.00273155 43465
INTELSAT 17 (IS-17)     
1 37238U 10065B   22230.43886215 -.00000009  00000+0  00000+0 0  9999
2 37238   0.0345 224.0420 0002491 286.5160  40.2050  1.00273392 42896
INTELSAT NEW DAWN       
1 37392U 11016A   22232.56160552  .00000151  00000+0  00000+0 0  9999
2 37392   0.0185 192.7991 0000856 316.6599  54.3909  1.00275230 39288
INTELSAT 18 (IS-18)     
1 37834U 11056A   22232.54343552  .00000048  00000+0  00000+0 0  9990
2 37834   0.0229  30.7078 0002172 131.2083 182.5584  1.00273063 39800
INTELSAT 22 (IS-22)     
1 38098U 12011A   22232.52079748 -.00000064  00000+0  00000+0 0  9995
2 38098   0.0236  99.9270 0002879  60.4755  68.0093  1.00272159 37812
INTELSAT 19 (IS-19)     
1 38356U 12030A   22232.60301649 -.00000061  00000+0  00000+0 0  9997
2 38356   0.0155 121.0498 0003062  36.3746 194.5638  1.00272113 36432
INTELSAT 20 (IS-20)     
1 38740U 12043A   22230.67708333 -.00000032  00000+0  00000+0 0  9992
2 38740   0.0095 153.6122 0001846  38.1003  87.5222  1.00271927 36725
INTELSAT 21 (IS-21)     
1 38749U 12045A   22232.49489897 -.00000289  00000+0  00000+0 0  9990
2 38749   0.0114 114.6658 0002194  47.5996 286.6968  1.00272384 36524
INTELSAT 23 (IS-23)     
1 38867U 12057A   22231.56021891 -.00000290  00000+0  00000+0 0  9999
2 38867   0.0085 137.1973 0001634 226.1488 113.2318  1.00268050 36092
FM-6                    
1 39360U 13058A   22229.58367903 -.00000026  00000+0  00000+0 0  9993
2 39360   0.0509 268.7238 0000477 120.3032  30.8582  1.00270341 32023
INTELSAT 30 (IS-30)     
1 40271U 14062A   22231.11660517 -.00000156  00000+0  00000+0 0  9995
2 40271   0.0094 129.7535 0001527 314.7863 189.8163  1.00266600 28566
DIRECTV 14              
1 40333U 14078B   22231.32028646 -.00000131  00000+0  00000+0 0  9998
2 40333   0.0139 100.9607 0001159 122.7922 119.9617  1.00271127 28041
DIRECTV 15              
1 40663U 15026A   22232.15396854 -.00000108  00000+0  00000+0 0  9993
2 40663   0.0127 104.2064 0000570 262.1632 274.6554  1.00273085 26526
SKY MEXICO-1            
1 40664U 15026B   22232.49071334 -.00000239  00000+0  00000+0 0  9999
2 40664   0.0104  80.7952 0001987  86.4320 259.4620  1.00272204 26448
INTELSAT 34 (IS-34)     
1 40874U 15039A   22232.55535367 -.00000290  00000+0  00000+0 0  9991
2 40874   0.0383 294.4182 0000628  96.6950  82.1951  1.00276153 25615
INTELSAT 31 (IS-31)     
1 41581U 16035A   22232.34399546 -.00000155  00000+0  00000+0 0  9998
2 41581   0.0178 197.4423 0001370  43.1405 116.8350  1.00270932 22681
INTELSAT 36 (IS-36)     
1 41747U 16053A   22231.60040277 -.00000030  00000+0  00000+0 0  9996
2 41747   0.0138  75.9301 0002598 282.7687 253.8471  1.00272991 21932
INTELSAT 33E (IS-33E)   
1 41748U 16053B   22232.51835587  .00000044  00000+0  00000+0 0  9998
2 41748   0.0102  75.9328 0001729  93.8611  45.6217  1.00273623 22249
INTELSAT 32E (IS-32E)   
1 41945U 17007B   22231.10326983 -.00000275  00000+0  00000+0 0  9993
2 41945   0.0180 111.8968 0000153  16.8513 192.6736  1.00273563 20217
INTELSAT 35E (IS-35E)   
1 42818U 17041A   22232.40188444 -.00000243  00000+0  00000+0 0  9998
2 42818   0.0126 173.2834 0001547 346.6252 278.9733  1.00272331 18802
INTELSAT 37E (IS-37E)   
1 42950U 17059A   22232.52341016 -.00000145  00000+0  00000+0 0  9994
2 42950   0.0165 113.8566 0002517  44.8711 340.5187  1.00271610 18065
AZERSPACE 2 (IS-38)     
1 43632U 18074A   22232.51547826  .00000132  00000+0  00000+0 0  9991
2 43632   0.0162 119.2443 0001567  44.6609  35.5882  1.00271124 14443
HORIZONS-3E             
1 43633U 18074B   22231.89441845 -.00000036  00000+0  00000+0 0  9990
2 43633   0.0027 296.0101 0002034   5.4037 157.7745  1.00273000 14337
AT&T T-16               
1 44333U 19034A   22232.21993806 -.00000120  00000+0  00000+0 0  9995
2 44333   0.0215 240.0142 0000707 141.7453 285.0888  1.00272051 11626
INTELSAT 39 (IS-39)     
1 44476U 19049B   22232.51879188  .00000028  00000+0  00000+0 0  9994
2 44476   0.0103 136.3190 0000925 205.5563 235.6385  1.00271833 11140
GALAXY 30 (G-30)        
1 46114U 20056C   22232.52821972  .00000032  00000+0  00000+0 0  9999
2 46114   0.0161 124.0352 0001993  38.0265 231.9291  1.00273207  7397
